OBJECT_NAME,OBJECT_ID,EPOCH,MEAN_MOTION,ECCENTRICITY,INCLINATION,RA_OF_ASC_NODE,ARG_OF_PERICENTER,MEAN_ANOMALY,EPHEMERIS_TYPE,CLASSIFICATION_TYPE,NORAD_CAT_ID,ELEMENT_SET_NO,REV_AT_EPOCH,BSTAR,MEAN_MOTION_DOT,MEAN_MOTION_DDOT
STARLINK-34174,2025-110B,2026-06-11T03:09:47.475072,15.34406424,.00010005,53.1608,311.6950,81.6074,278.5042,0,U,64097,999,6020,.10519768E-2,.35341E-3,0
STARLINK-34146,2025-110C,2026-06-10T17:10:39.449568,15.34410695,.00011959,53.1604,313.3627,86.9532,273.1608,0,U,64098,999,6013,.87364136E-3,.29266E-3,0
STARLINK-34074,2025-110D,2026-06-11T02:57:01.920096,15.30209068,.00015913,53.1585,313.0529,69.3977,290.7194,0,U,64099,999,6018,.99597976E-3,.29264E-3,0
STARLINK-34082,2025-110E,2026-06-11T02:53:59.775072,15.30202172,.00012074,53.1584,313.0440,97.8717,262.2421,0,U,64100,999,6018,.81858363E-3,.23965E-3,0
STARLINK-34072,2025-110F,2026-06-10T17:49:03.945792,15.31712760,.00008079,53.1607,314.2402,77.0157,283.0935,0,U,64101,999,6013,.10582643E-2,.32631E-3,0
STARLINK-34104,2025-110G,2026-06-11T03:30:59.636448,15.34412395,.00006612,53.1618,311.7848,87.2272,272.8806,0,U,64102,999,6020,.90948493E-3,.30489E-3,0
STARLINK-34179,2025-110H,2026-06-10T16:03:13.053312,15.30214540,.00011245,53.1596,315.1962,83.3814,276.7315,0,U,64103,999,6011,.88065453E-3,.25826E-3,0
STARLINK-34176,2025-110J,2026-06-11T02:52:28.528032,15.30211729,.00011669,53.1576,313.0357,104.8643,255.2487,0,U,64104,999,6018,.82842056E-3,.24265E-3,0
STARLINK-33949,2025-110K,2026-06-11T03:20:01.838688,15.31712337,.0001399,53.1616,312.4441,88.8507,271.2655,0,U,64105,999,6019,.61741721E-3,.1885E-3,0
STARLINK-33970,2025-110L,2026-06-11T03:40:04.791072,15.34446798,.00006589,53.1616,311.8203,319.3966,40.6988,0,U,64106,999,6020,-.18536962E-3,-.6643E-4,0
STARLINK-33912,2025-110M,2026-06-10T16:08:52.116288,15.31738258,.00014241,53.1613,314.5083,88.7472,271.3693,0,U,64107,999,6012,.80796113E-3,.2482E-3,0
STARLINK-34156,2025-110N,2026-06-10T16:01:39.867456,15.31712766,.0001389,53.1600,314.4793,93.3392,266.7769,0,U,64108,999,6012,.80942074E-3,.24846E-3,0
STARLINK-34124,2025-110P,2026-06-11T02:52:40.118592,15.31708987,.0001784,53.1605,312.3172,67.5685,292.5505,0,U,64109,999,6019,.52644193E-3,.16011E-3,0
STARLINK-34145,2025-110Q,2026-06-11T02:42:31.201632,15.34403898,.00015671,53.1591,311.5732,92.8647,267.2535,0,U,64110,999,6020,.73955624E-3,.24696E-3,0
STARLINK-34148,2025-110R,2026-06-11T02:39:12.905856,15.31683033,.00008683,53.1584,312.2671,95.4297,264.6803,0,U,64111,999,6019,.70693206E-3,.21624E-3,0
STARLINK-34136,2025-110S,2026-06-11T02:45:56.298816,15.31717255,.00009297,53.1578,312.2966,102.1970,257.9135,0,U,64112,999,6019,.7491551E-3,.22966E-3,0
STARLINK-33839,2025-110T,2026-06-11T02:59:51.994176,15.31716481,.00014643,53.1586,312.3513,74.7047,285.4116,0,U,64113,999,6019,.94498532E-3,.29088E-3,0
STARLINK-34064,2025-110U,2026-06-11T03:26:44.780640,15.31725357,.00009285,53.1619,312.4697,80.2370,279.8737,0,U,64114,999,6019,.99021462E-3,.30512E-3,0
STARLINK-34067,2025-110V,2026-06-11T03:27:00.479520,15.33339639,.00010036,53.1628,311.7649,93.5786,266.5331,0,U,64115,999,6020,.97739101E-3,.31695E-3,0
STARLINK-34080,2025-110W,2026-06-10T17:02:01.005504,15.31707374,.00011895,53.1589,314.0304,87.5652,272.5486,0,U,64116,999,6012,.86988501E-3,.26731E-3,0
STARLINK-34122,2025-110X,2026-06-10T17:08:44.269728,15.31701951,.00010449,53.1593,314.0597,102.0280,258.0839,0,U,64117,999,6012,.52490556E-3,.15959E-3,0
STARLINK-33964,2025-110Y,2026-06-10T17:49:32.644416,15.31713653,.00015114,53.1621,314.2293,93.6019,266.5156,0,U,64118,999,6013,.70056031E-3,.21446E-3,0
STARLINK-34160,2025-110Z,2026-06-11T06:00:02.000160,15.49241321,.00010306,53.1589,307.6883,90.9324,144.3132,0,U,64119,999,590,.19452E-2,.108996E-2,0
STARLINK-34151,2025-110AA,2026-06-11T06:10:39.579456,15.30386965,.00011144,53.1593,312.4648,80.6441,279.4686,0,U,64120,999,6020,.59865155E-3,.17515E-3,0
STARLINK-34189,2025-110AB,2026-06-11T02:58:33.072960,15.30203501,.00012467,53.1598,313.0496,85.8189,274.2954,0,U,64121,999,6018,.50231605E-3,.14549E-3,0
STARLINK-33991,2025-110AC,2026-06-10T16:55:46.395840,15.31718512,.00011482,53.1603,314.0016,90.6787,269.4346,0,U,64122,999,6012,.75503049E-3,.23151E-3,0
STARLINK-11727 [DTC],2025-111A,2026-06-10T22:54:08.002656,15.70878875,.00025681,43.0007,132.0029,256.7207,103.3375,0,U,64123,999,6130,.11190022E-2,.14593E-2,0
STARLINK-11724 [DTC],2025-111B,2026-06-10T05:21:05.680224,15.70888526,.0000969,42.9987,135.9604,218.4423,141.6375,0,U,64124,999,6119,.11645E-2,.152051E-2,0
STARLINK-11725 [DTC],2025-111C,2026-06-11T04:37:26.538528,15.70877878,.00015392,42.9983,130.3418,244.6441,115.4267,0,U,64125,999,6134,.10162991E-2,.132262E-2,0
STARLINK-11717 [DTC],2025-111D,2026-06-10T22:38:50.472672,15.70790689,.00039686,42.9984,131.9180,210.1672,149.8967,0,U,64126,999,6125,.24845747E-2,.330733E-2,0
