STARLINK-34174          
1 64097U 25110B   26162.13179948  .00035341  00000+0  10520-2 0  9999
2 64097  53.1608 311.6950 0001000  81.6074 278.5042 15.34406424 60202
STARLINK-34146          
1 64098U 25110C   26161.71573437  .00029266  00000+0  87364-3 0  9994
2 64098  53.1604 313.3627 0001195  86.9532 273.1608 15.34410695 60137
STARLINK-34074          
1 64099U 25110D   26162.12293889  .00029264  00000+0  99598-3 0  9991
2 64099  53.1585 313.0529 0001591  69.3977 290.7194 15.30209068 60188
STARLINK-34082          
1 64100U 25110E   26162.12083073  .00023965  00000+0  81858-3 0  9998
2 64100  53.1584 313.0440 0001207  97.8717 262.2421 15.30202172 60180
STARLINK-34072          
1 64101U 25110F   26161.74240678  .00032631  00000+0  10583-2 0  9998
2 64101  53.1607 314.2402 0000807  77.0157 283.0935 15.31712760 60137
STARLINK-34104          
1 64102U 25110G   26162.14652357  .00030489  00000+0  90948-3 0  9998
2 64102  53.1618 311.7848 0000661  87.2272 272.8806 15.34412395 60200
STARLINK-34179          
1 64103U 25110H   26161.66890108  .00025826  00000+0  88065-3 0  9999
2 64103  53.1596 315.1962 0001124  83.3814 276.7315 15.30214540 60111
STARLINK-34176          
1 64104U 25110J   26162.11977463  .00024265  00000+0  82842-3 0  9994
2 64104  53.1576 313.0357 0001166 104.8643 255.2487 15.30211729 60185
STARLINK-33949          
1 64105U 25110K   26162.13891017  .00018850  00000+0  61742-3 0  9996
2 64105  53.1616 312.4441 0001399  88.8507 271.2655 15.31712337 60194
STARLINK-33970          
1 64106U 25110L   26162.15283323 -.00006643  00000+0 -18537-3 0  9997
2 64106  53.1616 311.8203 0000658 319.3966  40.6988 15.34446798 60209
STARLINK-33912          
1 64107U 25110M   26161.67282542  .00024820  00000+0  80796-3 0  9997
2 64107  53.1613 314.5083 0001424  88.7472 271.3693 15.31738258 60123
STARLINK-34156          
1 64108U 25110N   26161.66782254  .00024846  00000+0  80942-3 0  9993
2 64108  53.1600 314.4793 0001389  93.3392 266.7769 15.31712766 60128
STARLINK-34124          
1 64109U 25110P   26162.11990878  .00016011  00000+0  52644-3 0  9991
2 64109  53.1605 312.3172 0001784  67.5685 292.5505 15.31708987 60191
STARLINK-34145          
1 64110U 25110Q   26162.11286113  .00024696  00000+0  73956-3 0  9990
2 64110  53.1591 311.5732 0001567  92.8647 267.2535 15.34403898 60208
STARLINK-34148          
1 64111U 25110R   26162.11056604  .00021624  00000+0  70693-3 0  9994
2 64111  53.1584 312.2671 0000868  95.4297 264.6803 15.31683033 60199
STARLINK-34136          
1 64112U 25110S   26162.11523494  .00022966  00000+0  74916-3 0  9993
2 64112  53.1578 312.2966 0000929 102.1970 257.9135 15.31717255 60199
STARLINK-33839          
1 64113U 25110T   26162.12490734  .00029088  00000+0  94499-3 0  9995
2 64113  53.1586 312.3513 0001464  74.7047 285.4116 15.31716481 60197
STARLINK-34064          
1 64114U 25110U   26162.14357385  .00030512  00000+0  99021-3 0  9992
2 64114  53.1619 312.4697 0000928  80.2370 279.8737 15.31725357 60192
STARLINK-34067          
1 64115U 25110V   26162.14375555  .00031695  00000+0  97739-3 0  9999
2 64115  53.1628 311.7649 0001003  93.5786 266.5331 15.33339639 60206
STARLINK-34080          
1 64116U 25110W   26161.70973386  .00026731  00000+0  86989-3 0  9997
2 64116  53.1589 314.0304 0001189  87.5652 272.5486 15.31707374 60129
STARLINK-34122          
1 64117U 25110X   26161.71440127  .00015959  00000+0  52491-3 0  9992
2 64117  53.1593 314.0597 0001044 102.0280 258.0839 15.31701951 60125
STARLINK-33964          
1 64118U 25110Y   26161.74273894  .00021446  00000+0  70056-3 0  9996
2 64118  53.1621 314.2293 0001511  93.6019 266.5156 15.31713653 60136
STARLINK-34160          
1 64119U 25110Z   26162.25002315  .00108996  00000+0  19452-2 0  9990
2 64119  53.1589 307.6883 0001030  90.9324 144.3132 15.49241321  5904
STARLINK-34151          
1 64120U 25110AA  26162.25740254  .00017515  00000+0  59865-3 0  9992
2 64120  53.1593 312.4648 0001114  80.6441 279.4686 15.30386965 60205
STARLINK-34189          
1 64121U 25110AB  26162.12399390  .00014549  00000+0  50232-3 0  9993
2 64121  53.1598 313.0496 0001246  85.8189 274.2954 15.30203501 60183
STARLINK-33991          
1 64122U 25110AC  26161.70539810  .00023151  00000+0  75503-3 0  9997
2 64122  53.1603 314.0016 0001148  90.6787 269.4346 15.31718512 60128
STARLINK-11727 [DTC]    
1 64123U 25111A   26161.95425929  .00145930  00000+0  11190-2 0  9992
2 64123  43.0007 132.0029 0002568 256.7207 103.3375 15.70878875 61307
STARLINK-11724 [DTC]    
1 64124U 25111B   26161.22298241  .00152051  00000+0  11645-2 0  9995
2 64124  42.9987 135.9604 0000969 218.4423 141.6375 15.70888526 61198
STARLINK-11725 [DTC]    
1 64125U 25111C   26162.19266827  .00132262  00000+0  10163-2 0  9994
2 64125  42.9983 130.3418 0001539 244.6441 115.4267 15.70877878 61346
STARLINK-11717 [DTC]    
1 64126U 25111D   26161.94363973  .00330733  00000+0  24846-2 0  9993
2 64126  42.9984 131.9180 0003968 210.1672 149.8967 15.70790689 61255
